start=new Date('2021-10-01T00:00:00.000Z').valueOf();
sats=[{"REF_FRAME":"TEME","MEAN_ANOMALY":"283.2765","MEAN_ELEMENT_THEORY":"SGP4","EPHEMERIS_TYPE":"0","FILE":"3136969","LAUNCH_DATE":"2020-06-04","REV_AT_EPOCH":"7449","OBJECT_TYPE":"PAYLOAD","ELEMENT_SET_NO":"999","MEAN_MOTION_DDOT":"0.0000000000000","OBJECT_NAME":"STARLINK-1416","TLE_LINE2":"2 45692  53.0540 135.1246 0001812  76.8427 283.2765 15.06405544 74494","SITE":"AFETR","MEAN_MOTION":"15.06405544","OBJECT_ID":"2020-035AM","NORAD_CAT_ID":"45692","PERIAPSIS":"545.942","BSTAR":"0.00017171000000","COUNTRY_CODE":"US","ECCENTRICITY":"0.00018120","DECAY_DATE":null,"TLE_LINE1":"1 45692U 20035AM  21273.34594659  .00002277  00000-0  17171-3 0  9994","CENTER_NAME":"EARTH","MEAN_MOTION_DOT":"0.00002277","INCLINATION":"53.0540","GP_ID":"185859519","CLASSIFICATION_TYPE":"U","EPOCH":"2021-09-30T08:18:09.785376","APOAPSIS":"548.451","PERIOD":"95.592","RCS_SIZE":"LARGE","SEMIMAJOR_AXIS":"6925.332","ARG_OF_PERICENTER":"76.8427","TIME_SYSTEM":"UTC","RA_OF_ASC_NODE":"135.1246"},{"OBJECT_NAME":"STARLINK-1417","TLE_LINE2":"2 45693  53.0537 133.5499 0002057  86.1671 273.9553 15.06402025 74144","SITE":"AFETR","ELEMENT_SET_NO":"999","OBJECT_TYPE":"PAYLOAD","MEAN_MOTION_DDOT":"0.0000000000000","PERIAPSIS":"545.783","MEAN_MOTION":"15.06402025","OBJECT_ID":"2020-035AN","NORAD_CAT_ID":"45693","COUNTRY_CODE":"US","ECCENTRICITY":"0.00020570","BSTAR":"0.00004293700000","MEAN_MOTION_DOT":"0.00000358","INCLINATION":"53.0537","DECAY_DATE":null,"TLE_LINE1":"1 45693U 20035AN  21273.69611088  .00000358  00000-0  42937-4 0  9996","CENTER_NAME":"EARTH","REF_FRAME":"TEME","MEAN_ANOMALY":"273.9553","EPHEMERIS_TYPE":"0","MEAN_ELEMENT_THEORY":"SGP4","REV_AT_EPOCH":"7414","FILE":"3137057","LAUNCH_DATE":"2020-06-04","PERIOD":"95.592","EPOCH":"2021-09-30T16:42:23.980032","APOAPSIS":"548.632","SEMIMAJOR_AXIS":"6925.342","ARG_OF_PERICENTER":"86.1671","RCS_SIZE":"LARGE","TIME_SYSTEM":"UTC","RA_OF_ASC_NODE":"133.5499","CLASSIFICATION_TYPE":"U","GP_ID":"185864847"},{"MEAN_MOTION_DOT":"0.00030217","INCLINATION":"53.0531","TLE_LINE1":"1 45694U 20035AP  21273.76987828  .00030217  00000-0  20462-2 0  9997","DECAY_DATE":null,"CENTER_NAME":"EARTH","ECCENTRICITY":"0.00015500","COUNTRY_CODE":"US","BSTAR":"0.00204620000000","PERIAPSIS":"546.551","MEAN_MOTION":"15.06265787","OBJECT_ID":"2020-035AP","NORAD_CAT_ID":"45694","TLE_LINE2":"2 45694  53.0531 133.2153 0001550 111.2794 248.8360 15.06265787 74167","SITE":"AFETR","OBJECT_NAME":"STARLINK-1419","MEAN_MOTION_DDOT":"0.0000000000000","OBJECT_TYPE":"PAYLOAD","ELEMENT_SET_NO":"999","REV_AT_EPOCH":"7416","LAUNCH_DATE":"2020-06-04","FILE":"3137073","EPHEMERIS_TYPE":"0","MEAN_ELEMENT_THEORY":"SGP4","MEAN_ANOMALY":"248.8360","REF_FRAME":"TEME","RA_OF_ASC_NODE":"133.2153","TIME_SYSTEM":"UTC","SEMIMAJOR_AXIS":"6925.760","ARG_OF_PERICENTER":"111.2794","RCS_SIZE":"LARGE","PERIOD":"95.601","EPOCH":"2021-09-30T18:28:37.483392","APOAPSIS":"548.698","CLASSIFICATION_TYPE":"U","GP_ID":"185865337"},{"MEAN_MOTION_DDOT":"0.0000000000000","OBJECT_TYPE":"PAYLOAD","ELEMENT_SET_NO":"999","TLE_LINE2":"2 45695  53.0531 112.9416 0001986  85.9180 274.2036 15.06391123 74441","SITE":"AFETR","OBJECT_NAME":"STARLINK-1420","MEAN_MOTION":"15.06391123","OBJECT_ID":"2020-035AQ","NORAD_CAT_ID":"45695","PERIAPSIS":"545.865","BSTAR":"-0.00001557700000","COUNTRY_CODE":"US","ECCENTRICITY":"0.00019860","DECAY_DATE":null,"TLE_LINE1":"1 45695U 20035AQ  21273.83065772 -.00000514  00000-0 -15577-4 0  9993","CENTER_NAME":"EARTH","INCLINATION":"53.0531","MEAN_MOTION_DOT":"-0.00000514","MEAN_ANOMALY":"274.2036","REF_FRAME":"TEME","MEAN_ELEMENT_THEORY":"SGP4","EPHEMERIS_TYPE":"0","LAUNCH_DATE":"2020-06-04","FILE":"3137073","REV_AT_EPOCH":"7444","APOAPSIS":"548.616","EPOCH":"2021-09-30T19:56:08.827008","PERIOD":"95.593","RCS_SIZE":"LARGE","SEMIMAJOR_AXIS":"6925.376","ARG_OF_PERICENTER":"85.9180","TIME_SYSTEM":"UTC","RA_OF_ASC_NODE":"112.9416","CLASSIFICATION_TYPE":"U","GP_ID":"185864833"},{"REF_FRAME":"TEME","MEAN_ANOMALY":"285.7307","MEAN_ELEMENT_THEORY":"SGP4","EPHEMERIS_TYPE":"0","FILE":"3136969","LAUNCH_DATE":"2020-06-04","REV_AT_EPOCH":"7448","ELEMENT_SET_NO":"999","OBJECT_TYPE":"PAYLOAD","MEAN_MOTION_DDOT":"0.0000000000000","OBJECT_NAME":"STARLINK-1422","SITE":"AFETR","TLE_LINE2":"2 45696  53.0533 135.2840 0001713  74.3871 285.7307 15.06397366 74487","NORAD_CAT_ID":"45696","OBJECT_ID":"2020-035AR","MEAN_MOTION":"15.06397366","PERIAPSIS":"546.035","BSTAR":"0.00017657000000","COUNTRY_CODE":"US","ECCENTRICITY":"0.00017130","TLE_LINE1":"1 45696U 20035AR  21273.30910874  .00002349  00000-0  17657-3 0  9994","DECAY_DATE":null,"CENTER_NAME":"EARTH","INCLINATION":"53.0533","MEAN_MOTION_DOT":"0.00002349","GP_ID":"185860019","CLASSIFICATION_TYPE":"U","EPOCH":"2021-09-30T07:25:06.995136","APOAPSIS":"548.408","PERIOD":"95.592","RCS_SIZE":"LARGE","ARG_OF_PERICENTER":"74.3871","SEMIMAJOR_AXIS":"6925.357","TIME_SYSTEM":"UTC","RA_OF_ASC_NODE":"135.2840"},{"CLASSIFICATION_TYPE":"U","GP_ID":"185870739","APOAPSIS":"548.657","EPOCH":"2021-09-30T19:34:54.715584","PERIOD":"95.592","RCS_SIZE":"LARGE","ARG_OF_PERICENTER":"84.3183","SEMIMAJOR_AXIS":"6925.361","TIME_SYSTEM":"UTC","RA_OF_ASC_NODE":"113.0047","REF_FRAME":"TEME","MEAN_ANOMALY":"275.8041","MEAN_ELEMENT_THEORY":"SGP4","EPHEMERIS_TYPE":"0","FILE":"3137329","LAUNCH_DATE":"2020-06-04","REV_AT_EPOCH":"7444","ELEMENT_SET_NO":"999","OBJECT_TYPE":"PAYLOAD","MEAN_MOTION_DDOT":"0.0000000000000","OBJECT_NAME":"STARLINK-1351","SITE":"AFETR","TLE_LINE2":"2 45697  53.0541 113.0047 0002067  84.3183 275.8041 15.06396026 74443","MEAN_MOTION":"15.06396026","OBJECT_ID":"2020-035AS","NORAD_CAT_ID":"45697","PERIAPSIS":"545.794","BSTAR":"0.00012907000000","COUNTRY_CODE":"US","ECCENTRICITY":"0.00020670","CENTER_NAME":"EARTH","TLE_LINE1":"1 45697U 20035AS  21273.81591106  .00001641  00000-0  12907-3 0  9991","DECAY_DATE":null,"MEAN_MOTION_DOT":"0.00001641","INCLINATION":"53.0541"},{"CLASSIFICATION_TYPE":"U","GP_ID":"185870805","RA_OF_ASC_NODE":"113.6634","TIME_SYSTEM":"UTC","SEMIMAJOR_AXIS":"6925.362","ARG_OF_PERICENTER":"85.7421","RCS_SIZE":"LARGE","PERIOD":"95.592","APOAPSIS":"548.702","EPOCH":"2021-09-30T16:07:54.634368","REV_AT_EPOCH":"7443","FILE":"3137333","LAUNCH_DATE":"2020-06-04","EPHEMERIS_TYPE":"0","MEAN_ELEMENT_THEORY":"SGP4","REF_FRAME":"TEME","MEAN_ANOMALY":"274.3811","INCLINATION":"53.0556","MEAN_MOTION_DOT":"-0.00000014","TLE_LINE1":"1 45698U 20035AT  21273.67216012 -.00000014  00000-0  17958-4 0  9992","CENTER_NAME":"EARTH","DECAY_DATE":null,"ECCENTRICITY":"0.00021300","COUNTRY_CODE":"US","BSTAR":"0.00001795800000","PERIAPSIS":"545.752","MEAN_MOTION":"15.06395742","OBJECT_ID":"2020-035AT","NORAD_CAT_ID":"45698","OBJECT_NAME":"STARLINK-1370","SITE":"AFETR","TLE_LINE2":"2 45698  53.0556 113.6634 0002130  85.7421 274.3811 15.06395742 74431","ELEMENT_SET_NO":"999","OBJECT_TYPE":"PAYLOAD","MEAN_MOTION_DDOT":"0.0000000000000"},{"CLASSIFICATION_TYPE":"U","GP_ID":"185859769","PERIOD":"95.592","APOAPSIS":"548.746","EPOCH":"2021-09-29T23:56:35.409120","SEMIMAJOR_AXIS":"6925.356","ARG_OF_PERICENTER":"84.2347","RCS_SIZE":"LARGE","TIME_SYSTEM":"UTC","RA_OF_ASC_NODE":"116.6792","MEAN_ANOMALY":"275.8893","REF_FRAME":"TEME","EPHEMERIS_TYPE":"0","MEAN_ELEMENT_THEORY":"SGP4","REV_AT_EPOCH":"7472","LAUNCH_DATE":"2020-06-04","FILE":"3136969","TLE_LINE2":"2 45699  53.0527 116.6792 0002202  84.2347 275.8893 15.06397543 74728","SITE":"AFETR","OBJECT_NAME":"STARLINK-1398","MEAN_MOTION_DDOT":"0.0000000000000","ELEMENT_SET_NO":"999","OBJECT_TYPE":"PAYLOAD","PERIAPSIS":"545.696","OBJECT_ID":"2020-035AU","MEAN_MOTION":"15.06397543","NORAD_CAT_ID":"45699","ECCENTRICITY":"0.00022020","COUNTRY_CODE":"US","BSTAR":"0.00011420000000","INCLINATION":"53.0527","MEAN_MOTION_DOT":"0.00001420","CENTER_NAME":"EARTH","TLE_LINE1":"1 45699U 20035AU  21272.99763205  .00001420  00000-0  11420-3 0  9996","DECAY_DATE":null},{"BSTAR":"0.00013294000000","COUNTRY_CODE":"US","ECCENTRICITY":"0.00019810","DECAY_DATE":null,"TLE_LINE1":"1 45700U 20035AV  21273.06029629  .00001699  00000-0  13294-3 0  9992","CENTER_NAME":"EARTH","INCLINATION":"53.0544","MEAN_MOTION_DOT":"0.00001699","OBJECT_TYPE":"PAYLOAD","ELEMENT_SET_NO":"999","MEAN_MOTION_DDOT":"0.0000000000000","OBJECT_NAME":"STARLINK-1400","SITE":"AFETR","TLE_LINE2":"2 45700  53.0544 116.4039 0001981  84.8103 275.3112 15.06402677 74736","MEAN_MOTION":"15.06402677","OBJECT_ID":"2020-035AV","NORAD_CAT_ID":"45700","PERIAPSIS":"545.833","FILE":"3136969","LAUNCH_DATE":"2020-06-04","REV_AT_EPOCH":"7473","REF_FRAME":"TEME","MEAN_ANOMALY":"275.3112","MEAN_ELEMENT_THEORY":"SGP4","EPHEMERIS_TYPE":"0","TIME_SYSTEM":"UTC","RA_OF_ASC_NODE":"116.4039","EPOCH":"2021-09-30T01:26:49.599456","APOAPSIS":"548.577","PERIOD":"95.592","RCS_SIZE":"LARGE","SEMIMAJOR_AXIS":"6925.340","ARG_OF_PERICENTER":"84.8103","GP_ID":"185859520","CLASSIFICATION_TYPE":"U"},{"MEAN_MOTION":"15.06403002","OBJECT_ID":"2020-035AW","NORAD_CAT_ID":"45701","PERIAPSIS":"545.709","ELEMENT_SET_NO":"999","OBJECT_TYPE":"PAYLOAD","MEAN_MOTION_DDOT":"0.0000000000000","OBJECT_NAME":"STARLINK-1403","SITE":"AFETR","TLE_LINE2":"2 45701  53.0525 112.9917 0002159  85.5841 274.5395 15.06403002 74442","DECAY_DATE":null,"TLE_LINE1":"1 45701U 20035AW  21273.81959852  .00001669  00000-0  13095-3 0  9992","CENTER_NAME":"EARTH","INCLINATION":"53.0525","MEAN_MOTION_DOT":"0.00001669","BSTAR":"0.00013095000000","ECCENTRICITY":"0.00021590","COUNTRY_CODE":"US","MEAN_ELEMENT_THEORY":"SGP4","EPHEMERIS_TYPE":"0","REF_FRAME":"TEME","MEAN_ANOMALY":"274.5395","FILE":"3137053","LAUNCH_DATE":"2020-06-04","REV_AT_EPOCH":"7444","RCS_SIZE":"LARGE","SEMIMAJOR_AXIS":"6925.339","ARG_OF_PERICENTER":"85.5841","EPOCH":"2021-09-30T19:40:13.312128","APOAPSIS":"548.700","PERIOD":"95.592","RA_OF_ASC_NODE":"112.9917","TIME_SYSTEM":"UTC","GP_ID":"185865289","CLASSIFICATION_TYPE":"U"}];
